ONEWEB-0300             
1 49089U 21075Q   24268.85130401 -.00000152  00000+0 -45822-3 0  9992
2 49089  87.8860 116.2080 0001406  91.3991 268.7298 13.12444655153512
ONEWEB-0301             
1 49090U 21075R   24269.14003844 -.00000284  00000+0 -82608-3 0  9996
2 49090  87.8856 116.1543 0001462  90.8307 269.2989 13.12444251152917
ONEWEB-0302             
1 49091U 21075S   24268.82210099 -.00000020  00000+0 -89829-4 0  9994
2 49091  87.8861 116.2168 0001832  77.2725 282.8608 13.12443340151862
ONEWEB-0304             
1 49092U 21075T   24269.12604903  .00000064  00000+0  13095-3 0  9997
2 49092  87.9118 131.3764 0001793  72.1306 288.0021 13.17700441151583
ONEWEB-0305             
1 49093U 21075U   24268.89104964 -.00000003  00000+0 -39956-4 0  9993
2 49093  87.9116 131.4076 0001640  64.0024 296.1276 13.17505983151572
ONEWEB-0308             
1 49094U 21075V   24268.81563261  .00000215  00000+0  56204-3 0  9992
2 49094  87.8862 116.2163 0001585  83.9866 276.1444 13.12441575151879
ONEWEB-0309             
1 49095U 21075W   24269.12274823  .00000081  00000+0  17599-3 0  9996
2 49095  87.9118 131.3691 0002262  78.1032 282.0353 13.17722338151591
ONEWEB-0310             
1 49096U 21075X   24268.52527557 -.00000317  00000+0 -91589-3 0  9990
2 49096  87.8867 116.2911 0001837  82.6553 277.4784 13.12441396152464
